[{"OBJECT_NAME":"OBJECT AS","OBJECT_ID":"2023-085AS","EPOCH":"2026-03-09T22:43:55.521696","MEAN_MOTION":15.33336233,"ECCENTRICITY":0.00083243,"INCLINATION":97.4812,"RA_OF_ASC_NODE":180.8852,"ARG_OF_PERICENTER":80.6036,"MEAN_ANOMALY":279.6147,"EPHEMERIS_TYPE":0,"CLASSIFICATION_TYPE":"U","NORAD_CAT_ID":57044,"ELEMENT_SET_NO":999,"REV_AT_EPOCH":15162,"BSTAR":0.00067677795,"MEAN_MOTION_DOT":0.00021782,"MEAN_MOTION_DDOT":0},{"OBJECT_NAME":"STARLINK-35940","OBJECT_ID":"2025-271A","EPOCH":"2026-03-09T11:39:53.129376","MEAN_MOTION":15.3019203,"ECCENTRICITY":0.00013147,"INCLINATION":53.1569,"RA_OF_ASC_NODE":141.017,"ARG_OF_PERICENTER":60.7342,"MEAN_ANOMALY":299.379,"EPHEMERIS_TYPE":0,"CLASSIFICATION_TYPE":"U","NORAD_CAT_ID":66617,"ELEMENT_SET_NO":999,"REV_AT_EPOCH":1753,"BSTAR":0.00061835737,"MEAN_MOTION_DOT":0.00017995,"MEAN_MOTION_DDOT":0}]
